O3B MPOWER F1           
1 54755U 22174A   24102.28528882 -.00000025  00000+0  00000+0 0  9990
2 54755   0.0655   4.0236 0006643  23.3921 165.4791  5.00114772 25487
